[
  {
    "name": "KUIPER-00639",
    "noradId": "69786",
    "line1": "1 69786U 26151Z   26192.50002315  .00043462  00000+0  12256-2 0  9993",
    "line2": "2 69786  51.8684 198.3294 0009646 150.6296 277.0769 15.35939344  1308"
  },
  {
    "name": "KUIPER-00641",
    "noradId": "69787",
    "line1": "1 69787U 26151AA  26192.50002315  .00044747  00000+0  12911-2 0  9999",
    "line2": "2 69787  51.8673 198.3620 0010708 149.3799 261.9828 15.35196339  2087"
  },
  {
    "name": "KUIPER-00644",
    "noradId": "69788",
    "line1": "1 69788U 26151AB  26192.50002315  .00050366  00000+0  13929-2 0  9994",
    "line2": "2 69788  51.8735 198.3112 0008487 144.9133 291.8214 15.36489564  2387"
  },
  {
    "name": "KUIPER-00646",
    "noradId": "69789",
    "line1": "1 69789U 26151AC  26192.50002315  .00059061  00000+0  16577-2 0  9998",
    "line2": "2 69789  51.8700 198.3266 0009855 149.6838 279.4040 15.35946874  1305"
  },
  {
    "name": "KUIPER-00647",
    "noradId": "69790",
    "line1": "1 69790U 26151AD  26192.50002315  .00047175  00000+0  13434-2 0  9992",
    "line2": "2 69790  51.8659 198.3548 0010507 150.9983 263.7392 15.35587309  2227"
  },
  {
    "name": "KUIPER-00662",
    "noradId": "69791",
    "line1": "1 69791U 26151AE  26192.50002315  .00049550  00000+0  13666-2 0  9999",
    "line2": "2 69791  51.8722 198.3049 0008456 139.8432 300.0447 15.36583249  1304"
  }
]